$$SOE
2460721.500000000, A.D. 2025-Feb-15 00:00:00.0000, 2.784793814729301E+08, 1.542793506217676E+08, 2.659236941940849E+07,
2460728.500000000, A.D. 2025-Feb-22 00:00:00.0000, 2.712983300982094E+08, 1.650325982492028E+08, 2.719107727764171E+07,
2460735.500000000, A.D. 2025-Mar-01 00:00:00.0000, 2.637105194641041E+08, 1.755384299487516E+08, 2.774901174962182E+07,
2460742.500000000, A.D. 2025-Mar-08 00:00:00.0000, 2.557246809861919E+08, 1.857793384974856E+08, 2.826505738087000E+07,
2460749.500000000, A.D. 2025-Mar-15 00:00:00.0000, 2.473504598703807E+08, 1.957381234515902E+08, 2.873816837854794E+07,
2460756.500000000, A.D. 2025-Mar-22 00:00:00.0000, 2.385984035890301E+08, 2.053979509947974E+08, 2.916737359950595E+07,
2460763.500000000, A.D. 2025-Mar-29 00:00:00.0000, 2.294799469351074E+08, 2.147424116044819E+08, 2.955178101097251E+07,
2460770.500000000, A.D. 2025-Apr-05 00:00:00.0000, 2.200073939056779E+08, 2.237555782053612E+08, 2.989058180496036E+07,
2460777.500000000, A.D. 2025-Apr-12 00:00:00.0000, 2.101938944612556E+08, 2.324220644356218E+08, 3.018305430778995E+07,
2460784.500000000, A.D. 2025-Apr-19 00:00:00.0000, 2.000534160051523E+08, 2.407270816590826E+08, 3.042856758894190E+07,
2460791.500000000, A.D. 2025-Apr-26 00:00:00.0000, 1.896007099438343E+08, 2.486564940331380E+08, 3.062658468931498E+07,
2460798.500000000, A.D. 2025-May-03 00:00:00.0000, 1.788512735885453E+08, 2.561968711697046E+08, 3.077666542473496E+07,
2460805.500000000, A.D. 2025-May-10 00:00:00.0000, 1.678213076301277E+08, 2.633355379291248E+08, 3.087846873135883E+07,
2460812.500000000, A.D. 2025-May-17 00:00:00.0000, 1.565276694823300E+08, 2.700606208584458E+08, 3.093175451932719E+07,
2460819.500000000, A.D. 2025-May-24 00:00:00.0000, 1.449878229786247E+08, 2.763610908014780E+08, 3.093638499253063E+07,
2460826.500000000, A.D. 2025-May-31 00:00:00.0000, 1.332197852014939E+08, 2.822268016117098E+08, 3.089232540573956E+07,
2460833.500000000, A.D. 2025-Jun-07 00:00:00.0000, 1.212420704529298E+08, 2.876485258343076E+08, 3.079964438376996E+07,
2460840.500000000, A.D. 2025-Jun-14 00:00:00.0000, 1.090736294443574E+08, 2.926179863869079E+08, 3.065851395816413E+07,
2460847.500000000, A.D. 2025-Jun-21 00:00:00.0000, 9.673378538499042E+07, 2.971278807261690E+08, 3.046920894424629E+07,
2460854.500000000, A.D. 2025-Jun-28 00:00:00.0000, 8.424217059923691E+07, 3.011718990970256E+08, 3.023210552611156E+07,
2460861.500000000, A.D. 2025-Jul-05 00:00:00.0000, 7.161866267841607E+07, 3.047447388967283E+08, 2.994767937754117E+07,
2460868.500000000, A.D. 2025-Jul-12 00:00:00.0000, 5.888331949641643E+07, 3.078421142807392E+08, 2.961650338049538E+07,
2460875.500000000, A.D. 2025-Jul-19 00:00:00.0000, 4.605631379954860E+07, 3.104607604337795E+08, 2.923924490135373E+07,
2460882.500000000, A.D. 2025-Jul-26 00:00:00.0000, 3.315786809459359E+07, 3.125984325090430E+08, 2.881666263056044E+07,
2460889.500000000, A.D. 2025-Aug-02 00:00:00.0000, 2.020819039894660E+07, 3.142538993745511E+08, 2.834960301525591E+07,
2460896.500000000, A.D. 2025-Aug-09 00:00:00.0000, 7.227411351659033E+06, 3.154269323239501E+08, 2.783899631909609E+07,
2460903.500000000, A.D. 2025-Aug-16 00:00:00.0000, -5.764476791924627E+06, 3.161182889111174E+08, 2.728585233770722E+07,
2460910.500000000, A.D. 2025-Aug-23 00:00:00.0000, -1.874767857877600E+07, 3.163296921937032E+08, 2.669125578742732E+07,
2460917.500000000, A.D. 2025-Aug-30 00:00:00.0000, -3.170265048998360E+07, 3.160638064103836E+08, 2.605636144039011E+07,
2460924.500000000, A.D. 2025-Sep-06 00:00:00.0000, -4.461015387085809E+07, 3.153242104391197E+08, 2.538238926283880E+07,
2460931.500000000, A.D. 2025-Sep-13 00:00:00.0000, -5.745130703367860E+07, 3.141153669122060E+08, 2.467061954959396E+07,
2460938.500000000, A.D. 2025-Sep-20 00:00:00.0000, -7.020763302310626E+07, 3.124425857044533E+08, 2.392238766199738E+07,
2460945.500000000, A.D. 2025-Sep-27 00:00:00.0000, -8.286110180882937E+07, 3.103119852978306E+08, 2.313907856996843E+07,
2460952.500000000, A.D. 2025-Oct-04 00:00:00.0000, -9.539416878939819E+07, 3.077304529648410E+08, 2.232212146968943E+07,
2460959.500000000, A.D. 2025-Oct-11 00:00:00.0000, -1.077898098991398E+08, 3.047056032327077E+08, 2.147298447601131E+07,
2460966.500000000, A.D. 2025-Oct-18 00:00:00.0000, -1.200315529951725E+08, 3.012457347633734E+08, 2.059316938076743E+07,
2460973.500000000, A.D. 2025-Oct-25 00:00:00.0000, -1.321035053808822E+08, 2.973597860592463E+08, 1.968420650011003E+07,
2460980.500000000, A.D. 2025-Nov-01 00:00:00.0000, -1.439903774588374E+08, 2.930572903872611E+08, 1.874764963876703E+07,
2460987.500000000, A.D. 2025-Nov-08 00:00:00.0000, -1.556775025483297E+08, 2.883483302424172E+08, 1.778507119187835E+07,
2460994.500000000, A.D. 2025-Nov-15 00:00:00.0000, -1.671508528239024E+08, 2.832434916205229E+08, 1.679805738921523E+07,
2461001.500000000, A.D. 2025-Nov-22 00:00:00.0000, -1.783970511063512E+08, 2.777538186237076E+08, 1.578820368289974E+07,
2461008.500000000, A.D. 2025-Nov-29 00:00:00.0000, -1.894033788200180E+08, 2.718907698121967E+08, 1.475711040237325E+07,
2461015.500000000, A.D. 2025-Dec-06 00:00:00.0000, -2.001577825759792E+08, 2.656661764226579E+08, 1.370637888793437E+07,
2461022.500000000, A.D. 2025-Dec-13 00:00:00.0000, -2.106488791371765E+08, 2.590921993103115E+08, 1.263760779769056E+07,
2461029.500000000, A.D. 2025-Dec-20 00:00:00.0000, -2.208659554720099E+08, 2.521812858237204E+08, 1.155238935879707E+07,
2461036.500000000, A.D. 2025-Dec-27 00:00:00.0000, -2.307989651920968E+08, 2.449461293687534E+08, 1.045230587828380E+07,
2461043.500000000, A.D. 2026-Jan-03 00:00:00.0000, -2.404385230562927E+08, 2.373996311946439E+08, 9.338926598785147E+06,
2461050.500000000, A.D. 2026-Jan-10 00:00:00.0000, -2.497758976492569E+08, 2.295548638398457E+08, 8.213804833122060E+06,
2461057.500000000, A.D. 2026-Jan-17 00:00:00.0000, -2.588030022202053E+08, 2.214250362353345E+08, 7.078475346472442E+06,
2461064.500000000, A.D. 2026-Jan-24 00:00:00.0000, -2.675123838194473E+08, 2.130234605552283E+08, 5.934451976466000E+06,
2461071.500000000, A.D. 2026-Jan-31 00:00:00.0000, -2.758972109183594E+08, 2.043635208539308E+08, 4.783225482345864E+06,
2461078.500000000, A.D. 2026-Feb-07 00:00:00.0000, -2.839512596513566E+08, 1.954586434592482E+08, 3.626261605316177E+06,
2461085.500000000, A.D. 2026-Feb-14 00:00:00.0000, -2.916688986162756E+08, 1.863222691138493E+08, 2.464999306940943E+06,
2461092.500000000, A.D. 2026-Feb-21 00:00:00.0000, -2.990450720243406E+08, 1.769678274313397E+08, 1.300849187792808E+06,
2461099.500000000, A.D. 2026-Feb-28 00:00:00.0000, -3.060752824551606E+08, 1.674087147932262E+08, 1.351922701582238E+05,
2461106.500000000, A.D. 2026-Mar-07 00:00:00.0000, -3.127555754408481E+08, 1.576582736993978E+08, -1.030620836403906E+06,
2461113.500000000, A.D. 2026-Mar-14 00:00:00.0000, -3.190825232559766E+08, 1.477297711960536E+08, -2.195270842618152E+06,
2461120.500000000, A.D. 2026-Mar-21 00:00:00.0000, -3.250532062647821E+08, 1.376363792226910E+08, -3.357470696888335E+06,
2461127.500000000, A.D. 2026-Mar-28 00:00:00.0000, -3.306651939652791E+08, 1.273911578420886E+08, -4.515966255040608E+06,
2461134.500000000, A.D. 2026-Apr-04 00:00:00.0000, -3.359165264560401E+08, 1.170070403250410E+08, -5.669536737799779E+06,
2461141.500000000, A.D. 2026-Apr-11 00:00:00.0000, -3.408056961557096E+08, 1.064968196638173E+08, -6.816995041901484E+06,
2461148.500000000, A.D. 2026-Apr-18 00:00:00.0000, -3.453316297057208E+08, 9.587313643481794E+07, -7.957187930779569E+06,
2461155.500000000, A.D. 2026-Apr-25 00:00:00.0000, -3.494936700899454E+08, 8.514846794826327E+07, -9.088996118276034E+06,
2461162.500000000, A.D. 2026-May-02 00:00:00.0000, -3.532915590110189E+08, 7.433511857669057E+07, -1.021133426071804E+07,
2461169.500000000, A.D. 2026-May-09 00:00:00.0000, -3.567254194605416E+08, 6.344521111702115E+07, -1.132315088393814E+07,
2461176.500000000, A.D. 2026-May-16 00:00:00.0000, -3.597957381587477E+08, 5.249067924608299E+07, -1.242342827794449E+07,
2461183.500000000, A.D. 2026-May-23 00:00:00.0000, -3.625033478574206E+08, 4.148326201468702E+07, -1.351118228940234E+07,
2461190.500000000, A.D. 2026-May-30 00:00:00.0000, -3.648494116237161E+08, 3.043450062412079E+07, -1.458546180393209E+07,
2461197.500000000, A.D. 2026-Jun-06 00:00:00.0000, -3.668354094571022E+08, 1.935573413979560E+07, -1.564534816533653E+07,
2461204.500000000, A.D. 2026-Jun-13 00:00:00.0000, -3.684631235979669E+08, 8.258094275659825E+06, -1.668995485915953E+07,
2461211.500000000, A.D. 2026-Jun-20 00:00:00.0000, -3.697346230377613E+08, -2.847497889872722E+06, -1.771842718072866E+07,
2461218.500000000, A.D. 2026-Jun-27 00:00:00.0000, -3.706522489340347E+08, -1.395033367717754E+07, -1.872994176465213E+07,
2461225.500000000, A.D. 2026-Jul-04 00:00:00.0000, -3.712186009407373E+08, -2.503991789284622E+07, -1.972370604520132E+07,
2461232.500000000, A.D. 2026-Jul-11 00:00:00.0000, -3.714365242117617E+08, -3.610596943682303E+07, -2.069895768829609E+07,
2461239.500000000, A.D. 2026-Jul-18 00:00:00.0000, -3.713090969938506E+08, -4.713842146021958E+07, -2.165496400794891E+07,
2461246.500000000, A.D. 2026-Jul-25 00:00:00.0000, -3.708396187878904E+08, -5.812742112220369E+07, -2.259102137492152E+07,
2461253.500000000, A.D. 2026-Aug-01 00:00:00.0000, -3.700315990280865E+08, -6.906332904159315E+07, -2.350645463068079E+07,
2461260.500000000, A.D. 2026-Aug-08 00:00:00.0000, -3.688887460571218E+08, -7.993671852435708E+07, -2.440061653314976E+07,
2461267.500000000, A.D. 2026-Aug-15 00:00:00.0000, -3.674149559721367E+08, -9.073837416000231E+07, -2.527288723872853E+07,
2461274.500000000, A.D. 2026-Aug-22 00:00:00.0000, -3.656143020901913E+08, -1.014592886069174E+08, -2.612267365375313E+07,
2461281.500000000, A.D. 2026-Aug-29 00:00:00.0000, -3.634910273094538E+08, -1.120906589795077E+08, -2.694940856038988E+07,
2461288.500000000, A.D. 2026-Sep-05 00:00:00.0000, -3.610495372220201E+08, -1.226238857432020E+08, -2.775254995008855E+07,
$$EOE